IRIDIUM 57 [-]          
1 25273U 98019B   23351.11963211  .00000354  00000+0  11736-3 0  9996
2 25273  86.3966  14.7744 0002212  92.0851 268.0598 14.35016127346379
IRIDIUM 63 [-]          
1 25286U 98021B   23350.93192566  .00000453  00000+0  15065-3 0  9998
2 25286  86.3973 311.7885 0002074  90.6406 269.5028 14.35526213345435
IRIDIUM 69 [-]          
1 25319U 98026A   23350.90938270  .00000424  00000+0  12931-3 0  9994
2 25319  86.3976 326.7224 0003939  59.9947 300.1643 14.39706373344140
IRIDIUM 71 [-]          
1 25320U 98026B   23351.01987396  .00000497  00000+0  15137-3 0  9993
2 25320  86.3969 321.4853 0004417  92.0720 268.0985 14.40031650344921
IRIDIUM 73 [-]          
1 25344U 98032C   23350.85108678  .00000715  00000+0  17891-3 0  9997
2 25344  86.4415 279.2589 0002859  77.5471 282.6054 14.50189798351058
IRIDIUM 82 [-]          
1 25467U 98051A   23350.58928249  .00009114  00000+0  51513-3 0  9999
2 25467  86.3927  12.2881 0142687 170.8661 189.5224 15.04568891340836
IRIDIUM 2 [-]           
1 25527U 98066A   23350.69244442  .00040213  00000+0  76556-3 0  9999
2 25527  85.5170  59.8187 0002501 321.4803  38.6275 15.48040732379268
